NORAD_CAT_ID,OBJECT_NAME,OBJECT_TYPE,EPOCH,MEAN_MOTION,ECCENTRICITY,INCLINATION,RA_OF_ASC_NODE,ARG_OF_PERICENTER,MEAN_ANOMALY,BSTAR,MEAN_MOTION_DOT,MEAN_MOTION_DDOT,TLE_LINE0,TLE_LINE1,TLE_LINE2,SEMIMAJOR_AXIS,PERIOD,APOGEE,PERIGEE,DECAYED
51983.0,STARLINK-3655,PAYLOAD,2024-06-20 18:15:34,15.0801409,0.0001396,53.2201,333.3,95.4429,264.6722,0.00036116,5.339e-05,0.0,0 STARLINK-3655,1 51983U 22025AD  24172.76082055  .00005339  00000-0  36116-3 0  9996,2 51983  53.2201 333.3000 0001396  95.4429 264.6722 15.08014090127530,6920.406,95.49,543.237,541.305,0.0
51983.0,STARLINK-3655,PAYLOAD,2024-06-21 10:09:57,15.08020464,0.0001342,53.2197,330.3282,88.6003,271.5143,0.00012702,1.692e-05,0.0,0 STARLINK-3655,1 51983U 22025AD  24173.42358037  .00001692  00000-0  12702-3 0  9999,2 51983  53.2197 330.3282 0001342  88.6003 271.5143 15.08020464126519,6920.387,95.489,543.18,541.323,0.0
51983.0,STARLINK-3655,PAYLOAD,2024-06-21 19:42:34,15.08029964,0.0001336,53.2195,328.5453,89.2664,270.8481,0.00013816,1.866e-05,0.0,0 STARLINK-3655,1 51983U 22025AD  24173.82122986  .00001866  00000-0  13816-3 0  9995,2 51983  53.2195 328.5453 0001336  89.2664 270.8481 15.08029964127690,6920.357,95.489,543.147,541.298,0.0
51983.0,STARLINK-3655,PAYLOAD,2024-06-22 10:01:31,15.0801961,0.000132,53.219,325.8698,99.6535,260.4606,7.1882e-05,8.33e-06,0.0,0 STARLINK-3655,1 51983U 22025AD  24174.41772069  .00000833  00000-0  71882-4 0  9995,2 51983  53.2190 325.8698 0001320  99.6535 260.4606 15.08019610127782,6920.389,95.489,543.168,541.341,0.0
51983.0,STARLINK-3655,PAYLOAD,2024-06-22 14:47:49,15.08023713,0.0001342,53.219,324.9803,100.3757,259.7386,5.4179e-05,5.58e-06,0.0,0 STARLINK-3655,1 51983U 22025AD  24174.61654665  .00000558  00000-0  54179-4 0  9992,2 51983  53.2190 324.9803 0001342 100.3757 259.7386 15.08023713126694,6920.377,95.489,543.17,541.313,0.0
51983.0,STARLINK-3655,PAYLOAD,2024-06-23 13:03:56,15.08022505,0.0001462,53.2189,320.8199,102.8436,257.2719,8.1135e-05,9.77e-06,0.0,0 STARLINK-3655,1 51983U 22025AD  24175.54440860  .00000977  00000-0  81135-4 0  9992,2 51983  53.2189 320.8199 0001462 102.8436 257.2719 15.08022505127950,6920.38,95.489,543.257,541.234,0.0
51983.0,STARLINK-3655,PAYLOAD,2024-06-23 14:39:23,15.08024477,0.0001414,53.2192,320.5232,93.98,266.1354,7.7549e-05,9.22e-06,0.0,0 STARLINK-3655,1 51983U 22025AD  24175.61068374  .00000922  00000-0  77549-4 0  9990,2 51983  53.2192 320.5232 0001414  93.9800 266.1354 15.08024477126842,6920.374,95.489,543.218,541.261,0.0
51983.0,STARLINK-3655,PAYLOAD,2024-06-23 16:14:49,15.08024978,0.0001441,53.2193,320.2262,89.5351,270.5806,7.9676e-05,9.55e-06,0.0,0 STARLINK-3655,1 51983U 22025AD  24175.67695962  .00000955  00000-0  79676-4 0  9994,2 51983  53.2193 320.2262 0001441  89.5351 270.5806 15.08024978126853,6920.373,95.489,543.235,541.24,0.0
51983.0,STARLINK-3655,PAYLOAD,2024-06-24 14:30:56,15.08026433,0.0001432,53.2201,316.0669,95.6336,264.4819,9.8596e-05,1.249e-05,0.0,0 STARLINK-3655,1 51983U 22025AD  24176.60482009  .00001249  00000-0  98596-4 0  9993,2 51983  53.2201 316.0669 0001432  95.6336 264.4819 15.08026433126997,6920.368,95.489,543.224,541.242,0.0
51983.0,STARLINK-3655,PAYLOAD,2024-06-24 16:06:22,15.08028137,0.0001491,53.2203,315.7698,99.8829,260.2332,0.0001121,1.46e-05,0.0,0 STARLINK-3655,1 51983U 22025AD  24176.67109436  .00001460  00000-0  11210-3 0  9992,2 51983  53.2203 315.7698 0001491  99.8829 260.2332 15.08028137128129,6920.363,95.489,543.26,541.196,0.0
51983.0,STARLINK-3655,PAYLOAD,2024-06-25 12:47:04,15.0802068,0.0001542,53.2202,311.9054,106.8799,253.2362,2.1224e-05,4.5e-07,0.0,0 STARLINK-3655,1 51983U 22025AD  24177.53268823  .00000045  00000-0  21224-4 0  9999,2 51983  53.2202 311.9054 0001542 106.8799 253.2362 15.08020680128258,6920.386,95.489,543.318,541.184,0.0
51983.0,STARLINK-3655,PAYLOAD,2024-06-25 14:22:30,15.08021092,0.0001518,53.22,311.6082,104.2503,255.8657,2.1392e-05,4.7e-07,0.0,0 STARLINK-3655,1 51983U 22025AD  24177.59896383  .00000047  00000-0  21392-4 0  9991,2 51983  53.2200 311.6082 0001518 104.2503 255.8657 15.08021092127142,6920.385,95.489,543.3,541.199,0.0
51983.0,STARLINK-3655,PAYLOAD,2024-06-25 17:33:22,15.08026895,0.0001871,53.2201,311.0085,123.1644,236.9528,-2.5222e-06,-3.25e-06,0.0,0 STARLINK-3655,1 51983U 22025AD  24177.73151075 -.00000325  00000-0 -25222-5 0  9997,2 51983  53.2201 311.0085 0001871 123.1644 236.9528 15.08026895127163,6920.367,95.489,543.527,540.937,0.0
51983.0,STARLINK-3655,PAYLOAD,2024-06-27 12:30:11,15.08022421,0.0001231,53.2191,302.9925,98.466,261.6471,2.1333e-05,4.6e-07,0.0,0 STARLINK-3655,1 51983U 22025AD  24179.52096781  .00000046  00000-0  21333-4 0  9994,2 51983  53.2191 302.9925 0001231  98.4660 261.6471 15.08022421128552,6920.381,95.489,543.097,541.394,0.0
51983.0,STARLINK-3655,PAYLOAD,2024-06-27 15:41:03,15.08025141,0.0001244,53.2188,302.3983,88.8279,271.2855,6.7784e-05,7.7e-06,0.0,0 STARLINK-3655,1 51983U 22025AD  24179.65351715  .00000770  00000-0  67784-4 0  9993,2 51983  53.2188 302.3983 0001244  88.8279 271.2855 15.08025141127452,6920.372,95.489,543.098,541.376,0.0
51983.0,STARLINK-3655,PAYLOAD,2024-06-28 12:21:45,15.08003142,9.51e-05,53.2172,298.532,91.2985,268.8115,0.00049104,7.361e-05,0.0,0 STARLINK-3655,1 51983U 22025AD  24180.51511079  .00007361  00000-0  49104-3 0  9999,2 51983  53.2172 298.5320 0000951  91.2985 268.8115 15.08003142128709,6920.44,95.491,542.963,541.646,0.0
51983.0,STARLINK-3655,PAYLOAD,2024-06-28 13:57:10,15.0803173,0.000109,53.216,298.2356,94.2487,265.863,0.00013108,1.756e-05,0.0,0 STARLINK-3655,1 51983U 22025AD  24180.58137590  .00001756  00000-0  13108-3 0  9995,2 51983  53.2160 298.2356 0001090  94.2487 265.8630 15.08031730127596,6920.352,95.489,542.971,541.463,0.0
51983.0,STARLINK-3655,PAYLOAD,2024-06-28 15:32:35,15.08046261,0.0001128,53.2173,297.9381,116.2098,243.901,0.00026006,3.767e-05,0.0,0 STARLINK-3655,1 51983U 22025AD  24180.64763777  .00003767  00000-0  26006-3 0  9999,2 51983  53.2173 297.9381 0001128 116.2098 243.9010 15.08046261128729,6920.308,95.488,542.953,541.392,0.0
51983.0,STARLINK-3655,PAYLOAD,2024-06-29 01:05:15,15.08019291,0.0001433,53.2171,296.1557,78.9077,281.2076,2.0514e-05,3.4e-07,0.0,0 STARLINK-3655,1 51983U 22025AD  24181.04531801  .00000034  00000-0  20514-4 0  9998,2 51983  53.2171 296.1557 0001433  78.9077 281.2076 15.08019291128789,6920.39,95.489,543.247,541.263,0.0
51983.0,STARLINK-3655,PAYLOAD,2024-06-29 13:48:46,15.08005111,0.000103,53.2161,293.7807,76.4343,283.6764,-0.00010258,-1.881e-05,0.0,0 STARLINK-3655,1 51983U 22025AD  24181.57554041 -.00001881  00000-0 -10258-3 0  9993,2 51983  53.2161 293.7807 0001030  76.4343 283.6764 15.08005111128866,6920.433,95.49,543.011,541.586,0.0
51983.0,STARLINK-3655,PAYLOAD,2024-06-30 00:56:49,15.08017139,0.000146,53.2175,291.697,94.6151,265.5008,-5.2248e-05,-1.099e-05,0.0,0 STARLINK-3655,1 51983U 22025AD  24182.03946576 -.00001099  00000-0 -52248-4 0  9990,2 51983  53.2175 291.6970 0001460  94.6151 265.5008 15.08017139128936,6920.397,95.49,543.272,541.251,0.0
51983.0,STARLINK-3655,PAYLOAD,2024-06-30 13:40:18,15.08033159,0.0001319,53.2153,289.3218,75.8996,284.2143,0.00030893,4.527e-05,0.0,0 STARLINK-3655,1 51983U 22025AD  24182.56966302  .00004527  00000-0  30893-3 0  9995,2 51983  53.2153 289.3218 0001319  75.8996 284.2143 15.08033159129010,6920.348,95.489,543.125,541.3,0.0
51983.0,STARLINK-3655,PAYLOAD,2024-07-01 13:31:52,15.0803817,0.0001146,53.2155,284.8643,69.2327,290.8788,0.00044353,6.627e-05,0.0,0 STARLINK-3655,1 51983U 22025AD  24183.56380393  .00006627  00000-0  44353-3 0  9995,2 51983  53.2155 284.8643 0001146  69.2327 290.8788 15.08038170129169,6920.332,95.488,542.99,541.404,0.0
51983.0,STARLINK-3655,PAYLOAD,2024-07-01 16:42:44,15.08042903,0.0001173,53.2164,284.2697,71.0368,289.0751,0.00073874,0.00011237,0.0,0 STARLINK-3655,1 51983U 22025AD  24183.69635409  .00011237  00000-0  73874-3 0  9993,2 51983  53.2164 284.2697 0001173  71.0368 289.0751 15.08042903128065,6920.318,95.488,542.995,541.371,0.0
51983.0,STARLINK-3655,PAYLOAD,2024-07-02 13:23:26,15.08034795,0.000106,53.216,280.4073,74.8718,285.2391,0.0010935,0.0001678,0.0,0 STARLINK-3655,1 51983U 22025AD  24184.55794363  .00016780  00000-0  10935-2 0  9990,2 51983  53.2160 280.4073 0001060  74.8718 285.2391 15.08034795129319,6920.343,95.489,542.941,541.474,0.0
51983.0,STARLINK-3655,PAYLOAD,2024-07-03 13:15:00,15.08026579,0.0001176,53.2163,275.9488,67.5884,292.5232,0.00070195,0.00010657,0.0,0 STARLINK-3655,1 51983U 22025AD  24185.55208600  .00010657  00000-0  70195-3 0  9997,2 51983  53.2163 275.9488 0001176  67.5884 292.5232 15.08026579129464,6920.368,95.489,543.047,541.419,0.0
51983.0,STARLINK-3655,PAYLOAD,2024-07-03 22:47:37,15.08021341,0.0001161,53.2159,274.1672,82.623,277.4894,0.00020331,2.88e-05,0.0,0 STARLINK-3655,1 51983U 22025AD  24185.94974187  .00002880  00000-0  20331-3 0  9996,2 51983  53.2159 274.1672 0001161  82.6230 277.4894 15.08021341129527,6920.384,95.489,543.052,541.445,0.0
51983.0,STARLINK-3655,PAYLOAD,2024-07-04 14:42:00,15.08028391,0.0001335,53.217,271.1987,97.272,262.8424,0.00027991,4.074e-05,0.0,0 STARLINK-3655,1 51983U 22025AD  24186.61250008  .00004074  00000-0  27991-3 0  9996,2 51983  53.2170 271.1987 0001335  97.2720 262.8424 15.08028391128501,6920.362,95.489,543.151,541.303,0.0
51983.0,STARLINK-3655,PAYLOAD,2024-07-04 22:39:11,15.08026839,0.0001574,53.2158,269.7076,74.4847,285.6319,0.00031622,4.64e-05,0.0,0 STARLINK-3655,1 51983U 22025AD  24186.94388052  .00004640  00000-0  31622-3 0  9998,2 51983  53.2158 269.7076 0001574  74.4847 285.6319 15.08026839128557,6920.367,95.489,543.321,541.143,0.0
51983.0,STARLINK-3655,PAYLOAD,2024-07-05 12:58:07,15.08027397,0.0001348,53.2167,267.036,76.4934,283.6208,0.00015498,2.128e-05,0.0,0 STARLINK-3655,1 51983U 22025AD  24187.54036274  .00002128  00000-0  15498-3 0  9993,2 51983  53.2167 267.0360 0001348  76.4934 283.6208 15.08027397129761,6920.365,95.489,543.163,541.297,0.0
